[{"OBJECT_NAME":"SENTINEL-2A","OBJECT_ID":"2015-028A","EPOCH":"2026-02-25T04:19:12.423360","MEAN_MOTION":14.30192923,"ECCENTRICITY":0.00543683,"INCLINATION":98.5024,"RA_OF_ASC_NODE":132.8928,"ARG_OF_PERICENTER":194.7437,"MEAN_ANOMALY":165.2162,"EPHEMERIS_TYPE":0,"CLASSIFICATION_TYPE":"U","NORAD_CAT_ID":40697,"ELEMENT_SET_NO":999,"REV_AT_EPOCH":55771,"BSTAR":7.6852184e-5,"MEAN_MOTION_DOT":1.59e-6,"MEAN_MOTION_DDOT":0},{"OBJECT_NAME":"SL-16 DEB","OBJECT_ID":"1992-093CZ","EPOCH":"2026-03-09T20:27:31.907232","MEAN_MOTION":14.12806176,"ECCENTRICITY":0.01203523,"INCLINATION":71.078,"RA_OF_ASC_NODE":348.4503,"ARG_OF_PERICENTER":199.601,"MEAN_ANOMALY":220.8582,"EPHEMERIS_TYPE":0,"CLASSIFICATION_TYPE":"U","NORAD_CAT_ID":22408,"ELEMENT_SET_NO":999,"REV_AT_EPOCH":69405,"BSTAR":0.00061969643,"MEAN_MOTION_DOT":1.187e-5,"MEAN_MOTION_DDOT":0}]
